[{"OBJECT_NAME":"ONEWEB-0127","OBJECT_ID":"2020-100R","EPOCH":"2026-03-09T19:46:38.313120","MEAN_MOTION":13.12441957,"ECCENTRICITY":0.00019487,"INCLINATION":87.8994,"RA_OF_ASC_NODE":10.3989,"ARG_OF_PERICENTER":79.8663,"MEAN_ANOMALY":280.2685,"EPHEMERIS_TYPE":0,"CLASSIFICATION_TYPE":"U","NORAD_CAT_ID":47273,"ELEMENT_SET_NO":999,"REV_AT_EPOCH":25169,"BSTAR":0.0012641584,"MEAN_MOTION_DOT":4.68e-6,"MEAN_MOTION_DDOT":0},{"OBJECT_NAME":"CZ-4C R\/B","OBJECT_ID":"2021-007F","EPOCH":"2026-03-09T17:01:41.996640","MEAN_MOTION":13.68035823,"ECCENTRICITY":0.02931285,"INCLINATION":63.4481,"RA_OF_ASC_NODE":213.4805,"ARG_OF_PERICENTER":2.4547,"MEAN_ANOMALY":357.785,"EPHEMERIS_TYPE":0,"CLASSIFICATION_TYPE":"U","NORAD_CAT_ID":47537,"ELEMENT_SET_NO":999,"REV_AT_EPOCH":25518,"BSTAR":3.3858725e-5,"MEAN_MOTION_DOT":-5.7e-7,"MEAN_MOTION_DDOT":0}]
